[{"OBJECT_NAME":"STARLINK-31730","OBJECT_ID":"2024-074X","EPOCH":"2026-03-09T02:59:21.351552","MEAN_MOTION":15.27556672,"ECCENTRICITY":0.00011459,"INCLINATION":43.003,"RA_OF_ASC_NODE":347.0799,"ARG_OF_PERICENTER":251.2892,"MEAN_ANOMALY":108.7835,"EPHEMERIS_TYPE":0,"CLASSIFICATION_TYPE":"U","NORAD_CAT_ID":59555,"ELEMENT_SET_NO":999,"REV_AT_EPOCH":10592,"BSTAR":-8.0472376e-5,"MEAN_MOTION_DOT":-2.474e-5,"MEAN_MOTION_DDOT":0},{"OBJECT_NAME":"ARCSTONE","OBJECT_ID":"2025-135N","EPOCH":"2026-03-09T21:21:29.017152","MEAN_MOTION":15.28638458,"ECCENTRICITY":0.00041199,"INCLINATION":97.4495,"RA_OF_ASC_NODE":185.9194,"ARG_OF_PERICENTER":166.7863,"MEAN_ANOMALY":193.3485,"EPHEMERIS_TYPE":0,"CLASSIFICATION_TYPE":"U","NORAD_CAT_ID":64540,"ELEMENT_SET_NO":999,"REV_AT_EPOCH":3984,"BSTAR":0.00094899777,"MEAN_MOTION_DOT":0.00026427,"MEAN_MOTION_DDOT":0}]
